NORAD_CAT_ID,OBJECT_NAME,OBJECT_TYPE,EPOCH,MEAN_MOTION,ECCENTRICITY,INCLINATION,RA_OF_ASC_NODE,ARG_OF_PERICENTER,MEAN_ANOMALY,BSTAR,MEAN_MOTION_DOT,MEAN_MOTION_DDOT,TLE_LINE0,TLE_LINE1,TLE_LINE2,SEMIMAJOR_AXIS,PERIOD,APOGEE,PERIGEE,DECAYED
56770.0,STARLINK-6342,PAYLOAD,2024-05-16 00:16:33,14.98382305,0.0003973,70.0013,235.3289,277.2464,82.8243,0.00015848,1.801e-05,0.0,0 STARLINK-6342,1 56770U 23078D   24137.01149400  .00001801  00000-0  15848-3 0  9990,2 56770  70.0013 235.3289 0003973 277.2464  82.8243 14.98382305 53181,6950.031,96.104,574.657,569.135,0.0
56770.0,STARLINK-6342,PAYLOAD,2024-05-16 13:05:37,14.98359434,0.0003289,70.0012,233.9813,275.7912,84.2872,-0.00027609,-3.388e-05,0.0,0 STARLINK-6342,1 56770U 23078D   24137.54557305 -.00003388  00000-0 -27609-3 0  9997,2 56770  70.0012 233.9813 0003289 275.7912  84.2872 14.98359434 53268,6950.102,96.105,574.253,569.681,0.0
56770.0,STARLINK-6342,PAYLOAD,2024-05-17 00:18:33,14.98347521,0.0004163,70.0012,232.805,274.6537,85.4147,-0.00020757,-2.57e-05,0.0,0 STARLINK-6342,1 56770U 23078D   24138.01289091 -.00002570  00000-0 -20757-3 0  9993,2 56770  70.0012 232.8050 0004163 274.6537  85.4147 14.98347521 53332,6950.139,96.106,574.897,569.11,0.0
56770.0,STARLINK-6342,PAYLOAD,2024-05-17 13:07:38,14.9833331,0.0003509,70.0018,231.4578,270.2153,89.8604,-0.00035082,-4.277e-05,0.0,0 STARLINK-6342,1 56770U 23078D   24138.54697789 -.00004277  00000-0 -35082-3 0  9991,2 56770  70.0018 231.4578 0003509 270.2153  89.8604 14.98333310 53413,6950.183,96.107,574.486,569.609,0.0
56770.0,STARLINK-6342,PAYLOAD,2024-05-17 16:19:55,14.98328172,0.0003481,70.0019,231.1212,269.9041,90.1719,-0.00012762,-1.615e-05,0.0,0 STARLINK-6342,1 56770U 23078D   24138.68050050 -.00001615  00000-0 -12762-3 0  9993,2 56770  70.0019 231.1212 0003481 269.9041  90.1719 14.98328172 53171,6950.199,96.107,574.483,569.644,0.0
56770.0,STARLINK-6342,PAYLOAD,2024-05-18 11:33:31,14.98354263,0.0003428,70.0026,229.1015,270.8318,89.2448,0.0014201,0.00016903,0.0,0 STARLINK-6342,1 56770U 23078D   24139.48161715  .00016903  00000-0  14201-2 0  9996,2 56770  70.0026 229.1015 0003428 270.8318  89.2448 14.98354263 53556,6950.118,96.105,574.365,569.6,0.0
56770.0,STARLINK-6342,PAYLOAD,2024-05-18 14:45:47,14.98365236,0.000342,70.0022,228.7647,270.9688,89.1079,0.0017091,0.00020378,0.0,0 STARLINK-6342,1 56770U 23078D   24139.61513327  .00020378  00000-0  17091-2 0  9992,2 56770  70.0022 228.7647 0003420 270.9688  89.1079 14.98365236 53316,6950.084,96.105,574.326,569.572,0.0
56770.0,STARLINK-6342,PAYLOAD,2024-05-18 16:21:55,14.98370938,0.0003408,70.0024,228.5961,272.4372,87.6397,0.0017782,0.00021212,0.0,0 STARLINK-6342,1 56770U 23078D   24139.68189102  .00021212  00000-0  17782-2 0  9994,2 56770  70.0024 228.5961 0003408 272.4372  87.6397 14.98370938 53320,6950.066,96.104,574.3,569.563,0.0
56770.0,STARLINK-6342,PAYLOAD,2024-05-18 22:46:27,14.98352153,0.0004064,70.0009,227.9232,269.9474,90.1219,0.00035412,4.137e-05,0.0,0 STARLINK-6342,1 56770U 23078D   24139.94892828  .00004137  00000-0  35412-3 0  9997,2 56770  70.0009 227.9232 0004064 269.9474  90.1219 14.98352153 53624,6950.124,96.106,574.814,569.165,0.0
56770.0,STARLINK-6342,PAYLOAD,2024-05-19 13:11:41,14.98319041,0.0003106,70.0026,226.409,269.8623,90.218,-0.00018091,-2.25e-05,0.0,0 STARLINK-6342,1 56770U 23078D   24140.54978230 -.00002250  00000-0 -18091-3 0  9997,2 56770  70.0026 226.4090 0003106 269.8623  90.2180 14.98319041 53458,6950.227,96.108,574.251,569.933,0.0
56770.0,STARLINK-6342,PAYLOAD,2024-05-20 11:37:33,14.98356569,0.0003284,70.002,224.0519,271.9507,88.1276,0.0019338,0.00023073,0.0,0 STARLINK-6342,1 56770U 23078D   24141.48442095  .00023073  00000-0  19338-2 0  9994,2 56770  70.0020 224.0519 0003284 271.9507  88.1276 14.98356569 53856,6950.111,96.105,574.258,569.693,0.0
56770.0,STARLINK-6342,PAYLOAD,2024-05-20 14:49:49,14.98364564,0.0003302,70.002,223.7149,272.4408,87.6373,0.0021569,0.00025761,0.0,0 STARLINK-6342,1 56770U 23078D   24141.61793826  .00025761  00000-0  21569-2 0  9995,2 56770  70.0020 223.7149 0003302 272.4408  87.6373 14.98364564 53618,6950.086,96.105,574.246,569.656,0.0
56770.0,STARLINK-6342,PAYLOAD,2024-05-21 05:15:02,14.98346123,0.000251,70.0067,222.2044,248.5359,111.5533,0.001012,0.00012008,0.0,0 STARLINK-6342,1 56770U 23078D   24142.21877765  .00012008  00000-0  10120-2 0  9998,2 56770  70.0067 222.2044 0002510 248.5359 111.5533 14.98346123 53960,6950.143,96.106,573.753,570.264,0.0
56770.0,STARLINK-6342,PAYLOAD,2024-05-21 11:39:34,14.98333236,0.0003216,70.0032,221.5304,257.3738,102.7061,0.00071483,8.447e-05,0.0,0 STARLINK-6342,1 56770U 23078D   24142.48581754  .00008447  00000-0  71483-3 0  9999,2 56770  70.0032 221.5304 0003216 257.3738 102.7061 14.98333236 54001,6950.183,96.107,574.283,569.813,0.0
56770.0,STARLINK-6342,PAYLOAD,2024-05-21 14:51:50,14.98330261,0.0002623,70.0044,221.1946,240.5557,119.5341,-3.9245e-05,-5.61e-06,0.0,0 STARLINK-6342,1 56770U 23078D   24142.61933979 -.00000561  00000-0 -39245-4 0  9996,2 56770  70.0044 221.1946 0002623 240.5557 119.5341 14.98330261 53760,6950.192,96.107,573.88,570.234,0.0
56770.0,STARLINK-6342,PAYLOAD,2024-05-22 11:41:35,14.98341178,0.000276,70.003,219.0057,250.5332,109.5529,4.2108e-05,4.1e-06,0.0,0 STARLINK-6342,1 56770U 23078D   24143.48721165  .00000410  00000-0  42108-4 0  9997,2 56770  70.0030 219.0057 0002760 250.5332 109.5529 14.98341178 54158,6950.158,96.106,573.942,570.105,0.0
56770.0,STARLINK-6342,PAYLOAD,2024-05-23 10:07:28,14.98331191,0.0003133,70.0004,216.6487,258.5564,101.5243,8.7637e-05,9.53e-06,0.0,0 STARLINK-6342,1 56770U 23078D   24144.42185594  .00000953  00000-0  87637-4 0  9990,2 56770  70.0004 216.6487 0003133 258.5564 101.5243 14.98331191 54293,6950.189,96.107,574.232,569.877,0.0
56770.0,STARLINK-6342,PAYLOAD,2024-05-23 13:19:44,14.98329791,0.000319,70.0003,216.3119,260.6019,99.4779,5.8902e-05,6.1e-06,0.0,0 STARLINK-6342,1 56770U 23078D   24144.55537724  .00000610  00000-0  58902-4 0  9993,2 56770  70.0003 216.3119 0003190 260.6019  99.4779 14.98329791 54059,6950.194,96.107,574.276,569.841,0.0
56770.0,STARLINK-6342,PAYLOAD,2024-05-23 14:55:52,14.98330292,0.0003239,70.0001,216.1432,262.7165,97.3626,5.5933e-05,5.74e-06,0.0,0 STARLINK-6342,1 56770U 23078D   24144.62213684  .00000574  00000-0  55933-4 0  9997,2 56770  70.0001 216.1432 0003239 262.7165  97.3626 14.98330292 54069,6950.192,96.107,574.308,569.806,0.0
56770.0,STARLINK-6342,PAYLOAD,2024-05-24 11:45:37,14.9833379,0.0003172,70.0001,213.9534,268.1877,91.8919,4.8563e-05,4.87e-06,0.0,0 STARLINK-6342,1 56770U 23078D   24145.49001374  .00000487  00000-0  48563-4 0  9998,2 56770  70.0001 213.9534 0003172 268.1877  91.8919 14.98333790 54456,6950.181,96.107,574.251,569.842,0.0
56770.0,STARLINK-6342,PAYLOAD,2024-05-24 13:21:45,14.9833531,0.0003146,70.0002,213.7852,268.7876,91.2922,6.4031e-05,6.71e-06,0.0,0 STARLINK-6342,1 56770U 23078D   24145.55677224  .00000671  00000-0  64031-4 0  9991,2 56770  70.0002 213.7852 0003146 268.7876  91.2922 14.98335310 54205,6950.176,96.107,574.228,569.855,0.0
56770.0,STARLINK-6342,PAYLOAD,2024-05-24 21:22:25,14.98328698,0.0002831,70.0019,212.9415,273.4421,86.6415,4.3761e-05,4.29e-06,0.0,0 STARLINK-6342,1 56770U 23078D   24145.89057760  .00000429  00000-0  43761-4 0  9993,2 56770  70.0019 212.9415 0002831 273.4421  86.6415 14.98328698 54259,6950.197,96.107,574.03,570.094,0.0
56770.0,STARLINK-6342,PAYLOAD,2024-05-25 11:47:39,14.98313898,0.0003155,70.0,211.4289,269.5263,90.5534,-6.579e-05,-8.78e-06,0.0,0 STARLINK-6342,1 56770U 23078D   24146.49143275 -.00000878  00000-0 -65790-4 0  9993,2 56770  70.0000 211.4289 0003155 269.5263  90.5534 14.98313898 54603,6950.243,96.108,574.3,569.915,0.0
56770.0,STARLINK-6342,PAYLOAD,2024-05-25 13:23:47,14.98313099,0.0003023,70.0009,211.2638,257.5186,102.5634,-6.3986e-05,-8.56e-06,0.0,0 STARLINK-6342,1 56770U 23078D   24146.55819329 -.00000856  00000-0 -63986-4 0  9991,2 56770  70.0009 211.2638 0003023 257.5186 102.5634 14.98313099 54353,6950.245,96.108,574.211,570.009,0.0
56770.0,STARLINK-6342,PAYLOAD,2024-05-26 03:48:59,14.98327843,0.0003636,69.9988,209.747,264.1626,95.9118,-4.3068e-05,-6.07e-06,0.0,0 STARLINK-6342,1 56770U 23078D   24147.15902691 -.00000607  00000-0 -43068-4 0  9996,2 56770  69.9988 209.7470 0003636 264.1626  95.9118 14.98327843 54708,6950.2,96.107,574.592,569.537,0.0
56770.0,STARLINK-6342,PAYLOAD,2024-05-26 13:25:48,14.98331309,0.0003363,69.9995,208.7353,267.0638,93.0137,4.4136e-05,4.34e-06,0.0,0 STARLINK-6342,1 56770U 23078D   24147.55958453  .00000434  00000-0  44136-4 0  9990,2 56770  69.9995 208.7353 0003363 267.0638  93.0137 14.98331309 54507,6950.189,96.107,574.391,569.716,0.0
56770.0,STARLINK-6342,PAYLOAD,2024-05-26 21:26:27,14.98338811,0.0003377,70.0012,207.8975,264.2568,95.8206,3.7954e-06,-4.8e-07,0.0,0 STARLINK-6342,1 56770U 23078D   24147.89337924 -.00000048  00000-0  37954-5 0  9994,2 56770  70.0012 207.8975 0003377 264.2568  95.8206 14.98338811 54553,6950.166,96.106,574.378,569.684,0.0
56770.0,STARLINK-6342,PAYLOAD,2024-05-27 03:51:00,14.98336231,0.0002947,70.0023,207.2253,246.5347,113.5502,2.8583e-05,2.48e-06,0.0,0 STARLINK-6342,1 56770U 23078D   24148.16042370  .00000248  00000-0  28583-4 0  9991,2 56770  70.0023 207.2253 0002947 246.5347 113.5502 14.98336231 54852,6950.174,96.107,574.087,569.99,0.0
56770.0,STARLINK-6342,PAYLOAD,2024-05-27 13:27:48,14.98337258,0.0003383,69.9994,206.2103,270.2634,89.8138,0.00035759,4.177e-05,0.0,0 STARLINK-6342,1 56770U 23078D   24148.56097726  .00004177  00000-0  35759-3 0  9997,2 56770  69.9994 206.2103 0003383 270.2634  89.8138 14.98337258 54655,6950.17,96.107,574.387,569.684,0.0
56770.0,STARLINK-6342,PAYLOAD,2024-05-28 05:29:09,14.98338909,0.0003264,69.9997,204.5279,267.2889,92.7896,0.00018892,2.162e-05,0.0,0 STARLINK-6342,1 56770U 23078D   24149.22857693  .00002162  00000-0  18892-3 0  9999,2 56770  69.9997 204.5279 0003264 267.2889  92.7896 14.98338909 55018,6950.165,96.106,574.299,569.762,0.0
